start=new Date('2022-09-18T00:00:00.000Z').valueOf();
sats=[{"RCS_SIZE":"LARGE","INCLINATION":"53.0568","MEAN_ANOMALY":"288.2290","EPOCH":"2022-09-17T14:05:35.040768","TLE_LINE2":"2 48691  53.0568  13.8517 0001186  71.8828 288.2290 15.06399996 73055","SITE":"AFETR","DECAY_DATE":null,"PERIAPSIS":"546.392","COUNTRY_CODE":"US","REV_AT_EPOCH":"7305","LAUNCH_DATE":"2021-05-26","MEAN_MOTION_DDOT":"0.0000000000000","MEAN_MOTION":"15.06399996","GP_ID":"212869787","APOAPSIS":"548.035","SEMIMAJOR_AXIS":"6925.349","CLASSIFICATION_TYPE":"U","MEAN_ELEMENT_THEORY":"SGP4","FILE":"3576621","TIME_SYSTEM":"UTC","EPHEMERIS_TYPE":"0","PERIOD":"95.592","CENTER_NAME":"EARTH","NORAD_CAT_ID":"48691","RA_OF_ASC_NODE":"13.8517","BSTAR":"0.00002736700000","ELEMENT_SET_NO":"999","OBJECT_TYPE":"PAYLOAD","MEAN_MOTION_DOT":"0.00000126","ARG_OF_PERICENTER":"71.8828","OBJECT_NAME":"STARLINK-2750","ECCENTRICITY":"0.00011860","OBJECT_ID":"2021-044BF","TLE_LINE1":"1 48691U 21044BF  22260.58721112  .00000126  00000-0  27367-4 0  9996","REF_FRAME":"TEME"},{"RCS_SIZE":"LARGE","INCLINATION":"53.0563","MEAN_ANOMALY":"272.0254","EPOCH":"2022-09-17T16:55:26.702688","TLE_LINE2":"2 48692  53.0563  13.4384 0001445  88.0901 272.0254 15.06400399 73072","SITE":"AFETR","DECAY_DATE":null,"PERIAPSIS":"546.212","COUNTRY_CODE":"US","LAUNCH_DATE":"2021-05-26","MEAN_MOTION_DDOT":"0.0000000000000","REV_AT_EPOCH":"7307","MEAN_MOTION":"15.06400399","GP_ID":"212870035","APOAPSIS":"548.213","SEMIMAJOR_AXIS":"6925.347","CLASSIFICATION_TYPE":"U","MEAN_ELEMENT_THEORY":"SGP4","FILE":"3576621","TIME_SYSTEM":"UTC","EPHEMERIS_TYPE":"0","PERIOD":"95.592","CENTER_NAME":"EARTH","NORAD_CAT_ID":"48692","RA_OF_ASC_NODE":"13.4384","ELEMENT_SET_NO":"999","BSTAR":"0.00016021000000","OBJECT_TYPE":"PAYLOAD","MEAN_MOTION_DOT":"0.00002106","ARG_OF_PERICENTER":"88.0901","OBJECT_NAME":"STARLINK-2752","ECCENTRICITY":"0.00014450","OBJECT_ID":"2021-044BG","TLE_LINE1":"1 48692U 21044BG  22260.70517017  .00002106  00000-0  16021-3 0  9992","REF_FRAME":"TEME"},{"ECCENTRICITY":"0.00013400","OBJECT_ID":"2021-044BH","REF_FRAME":"TEME","TLE_LINE1":"1 48693U 21044BH  22260.71299478 -.00002519  00000-0 -15029-3 0  9999","MEAN_MOTION_DOT":"-0.00002519","OBJECT_NAME":"STARLINK-2618","ARG_OF_PERICENTER":"86.1966","NORAD_CAT_ID":"48693","CENTER_NAME":"EARTH","RA_OF_ASC_NODE":"18.2784","BSTAR":"-0.00015029000000","ELEMENT_SET_NO":"999","OBJECT_TYPE":"PAYLOAD","TIME_SYSTEM":"UTC","MEAN_ELEMENT_THEORY":"SGP4","FILE":"3576621","EPHEMERIS_TYPE":"0","PERIOD":"95.593","APOAPSIS":"548.161","CLASSIFICATION_TYPE":"U","SEMIMAJOR_AXIS":"6925.368","MEAN_MOTION_DDOT":"0.0000000000000","LAUNCH_DATE":"2021-05-26","REV_AT_EPOCH":"7300","MEAN_MOTION":"15.06393739","GP_ID":"212869758","TLE_LINE2":"2 48693  53.0562  18.2784 0001340  86.1966 273.9176 15.06393739 73008","PERIAPSIS":"546.305","SITE":"AFETR","DECAY_DATE":null,"COUNTRY_CODE":"US","RCS_SIZE":"LARGE","INCLINATION":"53.0562","MEAN_ANOMALY":"273.9176","EPOCH":"2022-09-17T17:06:42.748992"},{"MEAN_MOTION_DDOT":"0.0000000000000","LAUNCH_DATE":"2021-05-26","REV_AT_EPOCH":"7293","GP_ID":"212868536","MEAN_MOTION":"15.06402114","APOAPSIS":"548.211","CLASSIFICATION_TYPE":"U","SEMIMAJOR_AXIS":"6925.342","RCS_SIZE":"LARGE","EPOCH":"2022-09-17T17:56:25.936224","MEAN_ANOMALY":"295.5981","INCLINATION":"53.0555","TLE_LINE2":"2 48694  53.0555  23.1251 0001450  64.5158 295.5981 15.06402114 72933","COUNTRY_CODE":"US","PERIAPSIS":"546.203","DECAY_DATE":null,"SITE":"AFETR","OBJECT_NAME":"STARLINK-2748","ARG_OF_PERICENTER":"64.5158","MEAN_MOTION_DOT":"0.00000610","ECCENTRICITY":"0.00014500","REF_FRAME":"TEME","TLE_LINE1":"1 48694U 21044BJ  22260.74752241  .00000610  00000-0  59821-4 0  9992","OBJECT_ID":"2021-044BJ","TIME_SYSTEM":"UTC","MEAN_ELEMENT_THEORY":"SGP4","FILE":"3576621","PERIOD":"95.592","EPHEMERIS_TYPE":"0","RA_OF_ASC_NODE":"23.1251","NORAD_CAT_ID":"48694","CENTER_NAME":"EARTH","OBJECT_TYPE":"PAYLOAD","ELEMENT_SET_NO":"999","BSTAR":"0.00005982100000"},{"RA_OF_ASC_NODE":"23.6689","CENTER_NAME":"EARTH","NORAD_CAT_ID":"48695","OBJECT_TYPE":"PAYLOAD","BSTAR":"-0.00005912200000","ELEMENT_SET_NO":"999","MEAN_ELEMENT_THEORY":"SGP4","FILE":"3576621","TIME_SYSTEM":"UTC","PERIOD":"95.593","EPHEMERIS_TYPE":"0","ECCENTRICITY":"0.00012540","TLE_LINE1":"1 48695U 21044BK  22260.63791659 -.00001161  00000-0 -59122-4 0  9995","REF_FRAME":"TEME","OBJECT_ID":"2021-044BK","OBJECT_NAME":"STARLINK-2616","ARG_OF_PERICENTER":"73.0546","MEAN_MOTION_DOT":"-0.00001161","TLE_LINE2":"2 48695  53.0563  23.6689 0001254  73.0546 287.0581 15.06380040 72925","COUNTRY_CODE":"US","SITE":"AFETR","DECAY_DATE":null,"PERIAPSIS":"546.406","RCS_SIZE":"LARGE","EPOCH":"2022-09-17T15:18:35.993376","INCLINATION":"53.0563","MEAN_ANOMALY":"287.0581","APOAPSIS":"548.143","SEMIMAJOR_AXIS":"6925.410","CLASSIFICATION_TYPE":"U","LAUNCH_DATE":"2021-05-26","REV_AT_EPOCH":"7292","MEAN_MOTION_DDOT":"0.0000000000000","GP_ID":"212869287","MEAN_MOTION":"15.06380040"},{"REF_FRAME":"TEME","TLE_LINE1":"1 48696U 21044BL  22260.76092304 -.00000530  00000-0 -16695-4 0  9998","OBJECT_ID":"2021-044BL","ECCENTRICITY":"0.00014140","OBJECT_NAME":"STARLINK-2753","ARG_OF_PERICENTER":"84.2792","MEAN_MOTION_DOT":"-0.00000530","OBJECT_TYPE":"PAYLOAD","BSTAR":"-0.00001669500000","ELEMENT_SET_NO":"999","RA_OF_ASC_NODE":"28.1026","NORAD_CAT_ID":"48696","CENTER_NAME":"EARTH","PERIOD":"95.593","EPHEMERIS_TYPE":"0","TIME_SYSTEM":"UTC","MEAN_ELEMENT_THEORY":"SGP4","FILE":"3576621","CLASSIFICATION_TYPE":"U","SEMIMAJOR_AXIS":"6925.380","APOAPSIS":"548.224","GP_ID":"212869535","MEAN_MOTION":"15.06389782","LAUNCH_DATE":"2021-05-26","MEAN_MOTION_DDOT":"0.0000000000000","REV_AT_EPOCH":"7287","COUNTRY_CODE":"US","PERIAPSIS":"546.266","SITE":"AFETR","DECAY_DATE":null,"TLE_LINE2":"2 48696  53.0571  28.1026 0001414  84.2792 275.8358 15.06389782 72878","EPOCH":"2022-09-17T18:15:43.750656","MEAN_ANOMALY":"275.8358","INCLINATION":"53.0571","RCS_SIZE":"LARGE"},{"RA_OF_ASC_NODE":"28.5362","NORAD_CAT_ID":"48697","CENTER_NAME":"EARTH","OBJECT_TYPE":"PAYLOAD","ELEMENT_SET_NO":"999","BSTAR":"-0.00002166200000","TIME_SYSTEM":"UTC","FILE":"3576621","MEAN_ELEMENT_THEORY":"SGP4","PERIOD":"95.593","EPHEMERIS_TYPE":"0","ECCENTRICITY":"0.00013090","REF_FRAME":"TEME","TLE_LINE1":"1 48697U 21044BM  22260.65771554 -.00000604  00000-0 -21662-4 0  9990","OBJECT_ID":"2021-044BM","OBJECT_NAME":"STARLINK-2715","ARG_OF_PERICENTER":"82.8567","MEAN_MOTION_DOT":"-0.00000604","TLE_LINE2":"2 48697  53.0564  28.5362 0001309  82.8567 277.2571 15.06383035 72851","COUNTRY_CODE":"US","PERIAPSIS":"546.359","SITE":"AFETR","DECAY_DATE":null,"RCS_SIZE":"LARGE","EPOCH":"2022-09-17T15:47:06.622656","INCLINATION":"53.0564","MEAN_ANOMALY":"277.2571","APOAPSIS":"548.172","CLASSIFICATION_TYPE":"U","SEMIMAJOR_AXIS":"6925.401","LAUNCH_DATE":"2021-05-26","MEAN_MOTION_DDOT":"0.0000000000000","REV_AT_EPOCH":"7285","GP_ID":"212870259","MEAN_MOTION":"15.06383035"},{"RCS_SIZE":"LARGE","INCLINATION":"97.5142","MEAN_ANOMALY":"93.4680","EPOCH":"2022-09-17T22:00:00.999936","TLE_LINE2":"2 48879  97.5142  28.7152 0001781 116.1594  93.4680 15.02908803  1305","SITE":"AFETR","DECAY_DATE":null,"PERIAPSIS":"556.699","COUNTRY_CODE":"US","REV_AT_EPOCH":"130","LAUNCH_DATE":"2021-06-30","MEAN_MOTION_DDOT":"0.0000000000000","MEAN_MOTION":"15.02908803","GP_ID":"212870055","APOAPSIS":"559.170","SEMIMAJOR_AXIS":"6936.069","CLASSIFICATION_TYPE":"U","MEAN_ELEMENT_THEORY":"SGP4","FILE":"3576621","TIME_SYSTEM":"UTC","EPHEMERIS_TYPE":"0","PERIOD":"95.814","CENTER_NAME":"EARTH","NORAD_CAT_ID":"48879","RA_OF_ASC_NODE":"28.7152","ELEMENT_SET_NO":"999","BSTAR":"-0.00204410000000","OBJECT_TYPE":"PAYLOAD","MEAN_MOTION_DOT":"-0.00027371","OBJECT_NAME":"STARLINK-3003","ARG_OF_PERICENTER":"116.1594","ECCENTRICITY":"0.00017810","OBJECT_ID":"2021-059A","TLE_LINE1":"1 48879U 21059A   22260.91667824 -.00027371  00000-0 -20441-2 0  9993","REF_FRAME":"TEME"},{"TLE_LINE2":"2 48880  97.5138  28.7197 0001869 120.2498  98.6061 15.02895137  1302","COUNTRY_CODE":"US","DECAY_DATE":null,"SITE":"AFETR","PERIAPSIS":"556.680","RCS_SIZE":"LARGE","EPOCH":"2022-09-17T22:00:00.999936","INCLINATION":"97.5138","MEAN_ANOMALY":"98.6061","APOAPSIS":"559.273","SEMIMAJOR_AXIS":"6936.111","CLASSIFICATION_TYPE":"U","LAUNCH_DATE":"2021-06-30","MEAN_MOTION_DDOT":"0.0000000000000","REV_AT_EPOCH":"130","GP_ID":"212869778","MEAN_MOTION":"15.02895137","RA_OF_ASC_NODE":"28.7197","CENTER_NAME":"EARTH","NORAD_CAT_ID":"48880","OBJECT_TYPE":"PAYLOAD","ELEMENT_SET_NO":"999","BSTAR":"-0.00198550000000","MEAN_ELEMENT_THEORY":"SGP4","FILE":"3576621","TIME_SYSTEM":"UTC","PERIOD":"95.815","EPHEMERIS_TYPE":"0","ECCENTRICITY":"0.00018690","TLE_LINE1":"1 48880U 21059B   22260.91667824 -.00026582  00000-0 -19855-2 0  9995","REF_FRAME":"TEME","OBJECT_ID":"2021-059B","ARG_OF_PERICENTER":"120.2498","OBJECT_NAME":"STARLINK-3004","MEAN_MOTION_DOT":"-0.00026582"},{"EPHEMERIS_TYPE":"0","PERIOD":"95.816","FILE":"3576621","MEAN_ELEMENT_THEORY":"SGP4","TIME_SYSTEM":"UTC","BSTAR":"-0.00194320000000","ELEMENT_SET_NO":"999","OBJECT_TYPE":"PAYLOAD","CENTER_NAME":"EARTH","NORAD_CAT_ID":"48881","RA_OF_ASC_NODE":"28.7470","MEAN_MOTION_DOT":"-0.00026013","ARG_OF_PERICENTER":"122.4798","OBJECT_NAME":"STARLINK-3005","OBJECT_ID":"2021-059C","TLE_LINE1":"1 48881U 21059C   22260.91667824 -.00026013  00000-0 -19432-2 0  9996","REF_FRAME":"TEME","ECCENTRICITY":"0.00019970","MEAN_ANOMALY":"119.4373","INCLINATION":"97.5144","EPOCH":"2022-09-17T22:00:00.999936","RCS_SIZE":"LARGE","DECAY_DATE":null,"SITE":"AFETR","PERIAPSIS":"556.615","COUNTRY_CODE":"US","TLE_LINE2":"2 48881  97.5144  28.7470 0001997 122.4798 119.4373 15.02887251  1309","MEAN_MOTION":"15.02887251","GP_ID":"212868556","LAUNCH_DATE":"2021-06-30","MEAN_MOTION_DDOT":"0.0000000000000","REV_AT_EPOCH":"130","SEMIMAJOR_AXIS":"6936.136","CLASSIFICATION_TYPE":"U","APOAPSIS":"559.386"}];
